FUNCUBE-1 (AO-73)       
1 39444U 13066AE  24176.85772966  .00005430  00000+0  52561-3 0  9993
2 39444  97.7202 135.7972 0049837 114.5902 246.0522 14.92211510571257
UWE-3                   
1 39446U 13066AG  24177.39797574  .00003405  00000+0  38172-3 0  9999
2 39446  97.7815 126.9626 0059926 190.8700 169.1226 14.86181021570510
BRITE-CA1 (TORONTO)     
1 40020U 14033L   24177.32823205  .00001301  00000+0  21597-3 0  9994
2 40020  97.8787 314.1641 0084255  66.6247 294.3794 14.69482106536170
DUCHIFAT-1              
1 40021U 14033M   24176.92729431  .00010907  00000+0  72162-3 0  9992
2 40021  98.0895 161.1570 0014903  78.5744 281.7155 15.07458271545295
NANOSATC-BR1            
1 40024U 14033Q   24177.46088385  .00009068  00000+0  66871-3 0  9997
2 40024  98.0650 149.9071 0008012 131.5693 228.6219 15.03517154545017
QB50P1                  
1 40025U 14033R   24177.42309833  .00006066  00000+0  49366-3 0  9993
2 40025  98.0384 138.4491 0013270 131.8909 228.3447 14.99859435544627
QB50P2                  
1 40032U 14033Y   24176.86476938  .00005591  00000+0  47129-3 0  9996
2 40032  98.0060 129.5180 0010815 127.4884 232.7323 14.98559299543824
PERSEUS-M2              
1 40037U 14033AD  24176.74646727  .00001944  00000+0  20465-3 0  9995
2 40037  97.9272 107.5636 0013466 163.7300 196.4352 14.90519212542959
PERSEUS-M1              
1 40039U 14033AF  24176.83998180  .00001725  00000+0  18318-3 0  9991
2 40039  97.9073 103.6915 0013315 162.6080 197.5596 14.90298507542822
POLYITAN-1              
1 40042U 14033AJ  24177.14421061  .00008382  00000+0  63122-3 0  9998
2 40042  98.0696 141.7561 0015598 104.1050 256.1909 15.02676939544546
TIGRISAT                
1 40043U 14033AK  24176.51349704  .00002026  00000+0  27474-3 0  9991
2 40043  97.6961 338.9264 0053893 279.8437  79.6693 14.78974599538542
AEROCUBE 6A             
1 40045U 14033AM  24176.47827297  .00004817  00000+0  57858-3 0  9995
2 40045  97.6701 349.6693 0049103 257.1303 102.4423 14.83573275538875
AEROCUBE 6B             
1 40046U 14033AN  24177.52083484  .00004971  00000+0  58477-3 0  9994
2 40046  97.6670 349.3826 0047802 248.8451 110.7652 14.84460253539465
UKUBE-1                 
1 40074U 14037F   24177.37373338  .00006346  00000+0  60110-3 0  9997
2 40074  98.3435 107.8007 0005757  59.6838 300.4949 14.93981903540000
BRITE-PL2 (HEWELIUSZ)   
1 40119U 14049B   24177.21468709  .00002409  00000+0  26203-3 0  9991
2 40119  97.8837 276.8447 0015149 342.7148  17.3551 14.88936657533860
CP10 (EXOCUBE)          
1 40380U 15003E   24177.04559594  .01032130  63889-3  11216-2 0  9996
2 40380  99.0829 207.2106 0010380 103.4934 256.7501 16.09894579520717
AEROCUBE 5C             
1 40965U 15058B   24177.56071433  .00002104  00000+0  20414-3 0  9993
2 40965  64.7711 335.9410 0190907 305.5809  52.7635 14.82895238258275
AEROCUBE 7              
1 40966U 15058C   24176.82381799  .00002677  00000+0  24662-3 0  9995
2 40966  64.7686 331.9008 0185731 305.4323  52.9565 14.84789777258248
FOX-1A (AO-85)          
1 40967U 15058D   24176.88252380  .00001996  00000+0  19806-3 0  9992
2 40967  64.7786 351.9130 0190261 301.5899  56.6758 14.82290789  6139
SINOD-D 1               
1 40968U 15058E   24177.51776147  .00002845  00000+0  26505-3 0  9994
2 40968  64.7787 342.6537 0185050 300.3795  57.9132 14.84303688  9050
SNAP-3 ALICE            
1 40970U 15058G   24177.52056327  .00009850  00000+0  68626-3 0  9992
2 40970  64.7719 299.4341 0155874 298.3395  60.2072 14.96515282  7037
LMRST-SAT               
1 40971U 15058H   24177.53234613  .00002026  00000+0  20032-3 0  9997
2 40971  64.7776 345.4509 0191393 302.7827  55.4966 14.82234236  6236
SNAP-3 EDDIE            
1 40972U 15058J   24177.52873650  .00010170  00000+0  69970-3 0  9990
2 40972  64.7698 292.8033 0156436 299.2894  59.2663 14.96872696  9131
PROPCUBE 3              
1 40973U 15058K   24177.54767165  .00002574  00000+0  24089-3 0  9997
2 40973  64.7723 333.1470 0187816 304.1120  54.2291 14.84049543  7278
BISONSAT                
1 40974U 15058L   24177.55593696  .00006115  00000+0  47631-3 0  9998
2 40974  64.7695 307.1861 0169427 301.7789  56.6914 14.91430072  7013
SNAP-3 JIMI             
1 40975U 15058M   24177.55021009  .00003876  00000+0  33356-3 0  9993
2 40975  64.7709 321.0797 0179993 303.0835  55.3103 14.87216706  6273
PROPCUBE 1 (FLORA)      
1 40976U 15058N   24176.85792057  .00001844  00000+0  19075-3 0  9999
2 40976  64.7766   2.9855 0189288 304.2233  54.1063 14.81103596  8933
SINOD-D 3               
1 40977U 15058P   24176.90460770  .00002523  00000+0  24552-3 0  9991
2 40977  64.7758 356.0795 0183964 303.3549  55.0066 14.83096209  7178
VELOX-II                
1 41171U 15077F   24175.74681636  .00246427  00000+0  13108-2 0  9993
2 41171  14.9856 359.9398 0002616  54.6251 305.4323 15.78366361472822
HORYU-4                 
1 41340U 16012D   24176.44427344  .00010505  00000+0  51763-3 0  9999
2 41340  31.0036 288.3044 0010064  49.0299 311.1211 15.16628567459252
RAVAN                   
1 41849U 16067B   24177.04083965  .00008911  00000+0  48958-3 0  9997
2 41849  98.0646 355.1915 0012815   7.3405 352.8010 15.14298909417173
CELTEE 1                
1 41850U 16067C   24177.40158268  .00005182  00000+0  35349-3 0  9995
2 41850  98.1040 347.3208 0001989 127.7219 232.4187 15.06696173416669
OPTICUBE 04             
1 41851U 16067D   24177.01007157  .00003626  00000+0  27485-3 0  9996
2 41851  98.0766 342.2733 0018260  31.7835 328.4487 15.02817051416417
AEROCUBE 8D             
1 41852U 16067E   24177.05256881  .00005660  00000+0  37290-3 0  9996
2 41852  98.1081 346.7259 0006239  86.0028 274.1912 15.07931159416580
AEROCUBE 8C             
1 41853U 16067F   24176.93363094  .00006169  00000+0  40643-3 0  9999
2 41853  98.0896 345.1601 0007956  22.8973 337.2606 15.07885679416555
PROMETHEUS 2-1          
1 41854U 16067G   24176.54822786  .00013428  00000+0  67644-3 0  9991
2 41854  98.0999 352.2280 0012568  37.3501 322.8602 15.17252307416851
PROMETHEUS 2-3          
1 41855U 16067H   24177.46796456  .00013309  00000+0  67091-3 0  9992
2 41855  98.0932 352.6909 0010820  44.6809 315.5293 15.17247695416996
DIDO-2                  
1 42000U 17008BE  24176.71796520  .00386746  62403-4  92721-3 0  9996
2 42000  97.1280 239.0508 0004511 198.9435 161.1675 15.96508972410006
AALTO-1                 
1 42775U 17036L   24177.12570473  .00101954  00000+0  84351-3 0  9995
2 42775  97.1007 206.8695 0007943 156.5266 203.6361 15.69916972390357
URSA MAIOR              
1 42776U 17036M   24176.64435781  .00947220  50317-3  11674-2 0  9995
2 42776  97.0923 211.4706 0010260 205.8337 154.2435 16.07915357390602
CORVUS BC2              
1 42846U 17042X   24177.47345952  .00003743  00000+0  32303-3 0  9998
2 42846  97.3752   2.1140 0009359  41.7450 318.4486 14.97798144378684
CORVUS BC1              
1 42847U 17042Y   24177.16646791  .00002934  00000+0  25330-3 0  9993
2 42847  97.3725   2.2287 0008543  36.4746 323.7058 14.97941095378657
MIRATA                  
1 43015U 17073C   24176.90376085  .00015035  00000+0  70672-3 0  9997
2 43015  97.5937  61.5596 0167463 234.2113 124.3452 15.08037323357491
MAKERSAT 0              
1 43016U 17073D   24176.90356988  .00007036  00000+0  40224-3 0  9990
2 43016  97.5795  55.6770 0193277 256.3830 101.5803 14.98503349357070
GOMX-4B                 
1 43196U 18015E   24177.48235309  .00055364  00000+0  56765-3 0  9997
2 43196  97.6063 351.7383 0006811 268.4620  91.5858 15.64768851356821
GOMX-4A                 
1 43197U 18015F   24177.46714518  .00122514  00000+0  70449-3 0  9997
2 43197  97.5949 357.0083 0006588 248.1712 111.8853 15.78357929357184
CICERO 10               
1 43690U 18088A   24177.45833992  .00355231  44192-4  12692-2 0  9996
2 43690  85.0026 173.2223 0009261 179.7100 180.4186 15.88732003313505
SIRION PATHFINDER-2     
1 43759U 18099B   24176.88378125  .00004451  00000+0  33609-3 0  9994
2 43759  97.5293 232.8114 0008991 255.4531 104.5697 15.02870434303662
CORVUS BC4              
1 43767U 18099K   24177.12034721  .00003303  00000+0  25524-3 0  9994
2 43767  97.5092 230.2384 0009283 328.8787  31.1887 15.02165446303589
MOVE-II                 
1 43780U 18099Y   24177.14409565  .00017006  00000+0  88414-3 0  9995
2 43780  97.5206 240.0592 0004877 311.2334  48.8478 15.16126443304131
SPACEBEE-7              
1 43816U 18099BL  24177.14681903  .00010877  00000+0  63894-3 0  9997
2 43816  97.5472 240.7503 0008693 254.1762 105.8510 15.11848990303611
SPACEBEE-6              
1 43818U 18099BN  24177.16227520  .00028294  00000+0  11699-2 0  9999
2 43818  97.5395 246.2504 0007796 247.8138 112.2272 15.23911478304127
SHIELDS 1               
1 43850U 18104B   24176.73604570  .00012504  00000+0  33225-3 0  9995
2 43850  85.0238 277.9846 0011652  52.3022 307.9283 15.38044304307329
SONATE                  
1 44400U 19038Q   24176.89877616  .00018212  00000+0  54429-3 0  9995
2 44400  97.7117 171.3391 0018126  81.8731 278.4567 15.34482151275262
LUCKY-7                 
1 44406U 19038W   24176.94588673  .00035477  00000+0  75336-3 0  9991
2 44406  97.7008 175.6016 0014838  70.4237 289.8612 15.44830848275560
DUCHIFAT-3              
1 44854U 19089C   24176.89412856  .00014363  00000+0  72087-3 0  9998
2 44854  36.9583   2.2159 0004543 157.2300 202.8649 15.16677175249376
M2 PATHFINDER           
1 45727U 20037E   24177.07221911  .00002507  00000+0  22143-3 0  9999
2 45727  97.7766 353.4644 0012301  96.9063 263.3558 14.97221581217123
NETSAT-4                
1 46504U 20068U   24176.86306732  .00008819  00000+0  47002-3 0  9991
2 46504  97.8066 134.2111 0009120 349.1089  10.9943 15.15406499205339
